[{"OBJECT_NAME":"STARLINK-4481","OBJECT_ID":"2022-097AG","EPOCH":"2022-08-29T14:00:01.000224","MEAN_MOTION":15.73115187,"ECCENTRICITY":9.66e-5,"INCLINATION":53.2198,"RA_OF_ASC_NODE":151.9774,"ARG_OF_PERICENTER":93.2798,"MEAN_ANOMALY":44.4784,"EPHEMERIS_TYPE":0,"CLASSIFICATION_TYPE":"U","NORAD_CAT_ID":53418,"ELEMENT_SET_NO":999,"REV_AT_EPOCH":130,"BSTAR":0.00055983,"MEAN_MOTION_DOT":0.00078397,"MEAN_MOTION_DDOT":0},{"OBJECT_NAME":"STARLINK-4476","OBJECT_ID":"2022-097AH","EPOCH":"2022-08-29T16:00:00.999936","MEAN_MOTION":15.73167175,"ECCENTRICITY":0.0001085,"INCLINATION":53.2194,"RA_OF_ASC_NODE":151.6725,"ARG_OF_PERICENTER":80.0978,"MEAN_ANOMALY":117.352,"EPHEMERIS_TYPE":0,"CLASSIFICATION_TYPE":"U","NORAD_CAT_ID":53419,"ELEMENT_SET_NO":999,"REV_AT_EPOCH":349,"BSTAR":0.00062847,"MEAN_MOTION_DOT":0.00088389,"MEAN_MOTION_DDOT":0},{"OBJECT_NAME":"STARLINK-4552","OBJECT_ID":"2022-097AJ","EPOCH":"2022-08-29T14:00:01.000224","MEAN_MOTION":15.73174042,"ECCENTRICITY":0.0001131,"INCLINATION":53.2199,"RA_OF_ASC_NODE":152.0807,"ARG_OF_PERICENTER":96.9114,"MEAN_ANOMALY":351.2501,"EPHEMERIS_TYPE":0,"CLASSIFICATION_TYPE":"U","NORAD_CAT_ID":53420,"ELEMENT_SET_NO":999,"REV_AT_EPOCH":130,"BSTAR":0.00053428,"MEAN_MOTION_DOT":0.0007495,"MEAN_MOTION_DDOT":0},{"OBJECT_NAME":"STARLINK-4545","OBJECT_ID":"2022-097AK","EPOCH":"2022-08-29T14:00:01.000224","MEAN_MOTION":15.73189351,"ECCENTRICITY":0.0001108,"INCLINATION":53.2197,"RA_OF_ASC_NODE":152.0831,"ARG_OF_PERICENTER":90.4764,"MEAN_ANOMALY":355.9162,"EPHEMERIS_TYPE":0,"CLASSIFICATION_TYPE":"U","NORAD_CAT_ID":53421,"ELEMENT_SET_NO":999,"REV_AT_EPOCH":130,"BSTAR":0.0005012,"MEAN_MOTION_DOT":0.00070278,"MEAN_MOTION_DDOT":0},{"OBJECT_NAME":"STARLINK-4546","OBJECT_ID":"2022-097AL","EPOCH":"2022-08-29T16:00:00.999936","MEAN_MOTION":15.73168861,"ECCENTRICITY":0.0001087,"INCLINATION":53.2195,"RA_OF_ASC_NODE":151.6646,"ARG_OF_PERICENTER":85.3078,"MEAN_ANOMALY":116.3093,"EPHEMERIS_TYPE":0,"CLASSIFICATION_TYPE":"U","NORAD_CAT_ID":53422,"ELEMENT_SET_NO":999,"REV_AT_EPOCH":349,"BSTAR":0.0005821,"MEAN_MOTION_DOT":0.00081762,"MEAN_MOTION_DDOT":0},{"OBJECT_NAME":"STARLINK-4539","OBJECT_ID":"2022-097AM","EPOCH":"2022-08-29T14:00:01.000224","MEAN_MOTION":15.73113784,"ECCENTRICITY":0.0001226,"INCLINATION":53.22,"RA_OF_ASC_NODE":152.0834,"ARG_OF_PERICENTER":84.2922,"MEAN_ANOMALY":2.6961,"EPHEMERIS_TYPE":0,"CLASSIFICATION_TYPE":"U","NORAD_CAT_ID":53423,"ELEMENT_SET_NO":999,"REV_AT_EPOCH":130,"BSTAR":0.00031387,"MEAN_MOTION_DOT":0.00043495,"MEAN_MOTION_DDOT":0},{"OBJECT_NAME":"STARLINK-4532","OBJECT_ID":"2022-097AN","EPOCH":"2022-08-29T14:00:01.000224","MEAN_MOTION":15.73213998,"ECCENTRICITY":9.5e-5,"INCLINATION":53.2196,"RA_OF_ASC_NODE":152.0754,"ARG_OF_PERICENTER":95.1319,"MEAN_ANOMALY":355.4213,"EPHEMERIS_TYPE":0,"CLASSIFICATION_TYPE":"U","NORAD_CAT_ID":53424,"ELEMENT_SET_NO":999,"REV_AT_EPOCH":130,"BSTAR":0.00011574,"MEAN_MOTION_DOT":0.00015663,"MEAN_MOTION_DDOT":0},{"OBJECT_NAME":"STARLINK-4531","OBJECT_ID":"2022-097AP","EPOCH":"2022-08-29T16:00:00.999936","MEAN_MOTION":15.73159343,"ECCENTRICITY":0.000128,"INCLINATION":53.2196,"RA_OF_ASC_NODE":151.6656,"ARG_OF_PERICENTER":92.8889,"MEAN_ANOMALY":108.1309,"EPHEMERIS_TYPE":0,"CLASSIFICATION_TYPE":"U","NORAD_CAT_ID":53425,"ELEMENT_SET_NO":999,"REV_AT_EPOCH":349,"BSTAR":0.00061961,"MEAN_MOTION_DOT":0.00087091,"MEAN_MOTION_DDOT":0},{"OBJECT_NAME":"STARLINK-4558","OBJECT_ID":"2022-097AQ","EPOCH":"2022-08-29T16:00:00.999936","MEAN_MOTION":15.73208487,"ECCENTRICITY":9.61e-5,"INCLINATION":53.2195,"RA_OF_ASC_NODE":151.6616,"ARG_OF_PERICENTER":92.0574,"MEAN_ANOMALY":111.2958,"EPHEMERIS_TYPE":0,"CLASSIFICATION_TYPE":"U","NORAD_CAT_ID":53426,"ELEMENT_SET_NO":999,"REV_AT_EPOCH":349,"BSTAR":0.00040485,"MEAN_MOTION_DOT":0.00056602,"MEAN_MOTION_DDOT":0},{"OBJECT_NAME":"STARLINK-4541","OBJECT_ID":"2022-097AR","EPOCH":"2022-08-29T16:00:00.999936","MEAN_MOTION":15.73170823,"ECCENTRICITY":0.0001088,"INCLINATION":53.2202,"RA_OF_ASC_NODE":151.6627,"ARG_OF_PERICENTER":92.4692,"MEAN_ANOMALY":109.728,"EPHEMERIS_TYPE":0,"CLASSIFICATION_TYPE":"U","NORAD_CAT_ID":53427,"ELEMENT_SET_NO":999,"REV_AT_EPOCH":349,"BSTAR":0.00062594,"MEAN_MOTION_DOT":0.0008804,"MEAN_MOTION_DDOT":0},{"OBJECT_NAME":"STARLINK-4540","OBJECT_ID":"2022-097AS","EPOCH":"2022-08-29T14:00:01.000224","MEAN_MOTION":15.73236221,"ECCENTRICITY":9.19e-5,"INCLINATION":53.2193,"RA_OF_ASC_NODE":152.0696,"ARG_OF_PERICENTER":88.901,"MEAN_ANOMALY":4.034,"EPHEMERIS_TYPE":0,"CLASSIFICATION_TYPE":"U","NORAD_CAT_ID":53428,"ELEMENT_SET_NO":999,"REV_AT_EPOCH":130,"BSTAR":-0.00024166,"MEAN_MOTION_DOT":-0.00034447,"MEAN_MOTION_DDOT":0},{"OBJECT_NAME":"STARLINK-4543","OBJECT_ID":"2022-097AT","EPOCH":"2022-08-29T16:00:00.999936","MEAN_MOTION":15.73222519,"ECCENTRICITY":9.53e-5,"INCLINATION":53.2193,"RA_OF_ASC_NODE":151.6577,"ARG_OF_PERICENTER":104.0526,"MEAN_ANOMALY":100.5447,"EPHEMERIS_TYPE":0,"CLASSIFICATION_TYPE":"U","NORAD_CAT_ID":53429,"ELEMENT_SET_NO":999,"REV_AT_EPOCH":349,"BSTAR":-0.00014598,"MEAN_MOTION_DOT":-0.00021074,"MEAN_MOTION_DDOT":0},{"OBJECT_NAME":"STARLINK-4538","OBJECT_ID":"2022-097AU","EPOCH":"2022-08-29T14:00:01.000224","MEAN_MOTION":15.73177769,"ECCENTRICITY":8.56e-5,"INCLINATION":53.2204,"RA_OF_ASC_NODE":152.0697,"ARG_OF_PERICENTER":89.8674,"MEAN_ANOMALY":3.6682,"EPHEMERIS_TYPE":0,"CLASSIFICATION_TYPE":"U","NORAD_CAT_ID":53430,"ELEMENT_SET_NO":999,"REV_AT_EPOCH":130,"BSTAR":0.00056634,"MEAN_MOTION_DOT":0.00079541,"MEAN_MOTION_DDOT":0},{"OBJECT_NAME":"STARLINK-4548","OBJECT_ID":"2022-097AV","EPOCH":"2022-08-29T16:00:00.999936","MEAN_MOTION":15.73216641,"ECCENTRICITY":0.0001221,"INCLINATION":53.2195,"RA_OF_ASC_NODE":151.66,"ARG_OF_PERICENTER":80.651,"MEAN_ANOMALY":123.3163,"EPHEMERIS_TYPE":0,"CLASSIFICATION_TYPE":"U","NORAD_CAT_ID":53431,"ELEMENT_SET_NO":999,"REV_AT_EPOCH":349,"BSTAR":5.2216e-5,"MEAN_MOTION_DOT":6.719e-5,"MEAN_MOTION_DDOT":0},{"OBJECT_NAME":"STARLINK-4557","OBJECT_ID":"2022-097AW","EPOCH":"2022-08-29T16:00:00.999936","MEAN_MOTION":15.7324726,"ECCENTRICITY":0.0001172,"INCLINATION":53.2183,"RA_OF_ASC_NODE":151.649,"ARG_OF_PERICENTER":85.7631,"MEAN_ANOMALY":121.8246,"EPHEMERIS_TYPE":0,"CLASSIFICATION_TYPE":"U","NORAD_CAT_ID":53432,"ELEMENT_SET_NO":999,"REV_AT_EPOCH":349,"BSTAR":-0.0020778,"MEAN_MOTION_DOT":-0.00283191,"MEAN_MOTION_DDOT":0},{"OBJECT_NAME":"STARLINK-4549","OBJECT_ID":"2022-097AX","EPOCH":"2022-08-29T16:00:00.999936","MEAN_MOTION":15.73170738,"ECCENTRICITY":9.01e-5,"INCLINATION":53.2193,"RA_OF_ASC_NODE":151.6548,"ARG_OF_PERICENTER":84.733,"MEAN_ANOMALY":121.6477,"EPHEMERIS_TYPE":0,"CLASSIFICATION_TYPE":"U","NORAD_CAT_ID":53433,"ELEMENT_SET_NO":999,"REV_AT_EPOCH":349,"BSTAR":0.00057425,"MEAN_MOTION_DOT":0.00080647,"MEAN_MOTION_DDOT":0},{"OBJECT_NAME":"STARLINK-4498","OBJECT_ID":"2022-097AY","EPOCH":"2022-08-29T16:00:00.999936","MEAN_MOTION":15.73171992,"ECCENTRICITY":8.95e-5,"INCLINATION":53.2193,"RA_OF_ASC_NODE":151.6506,"ARG_OF_PERICENTER":87.5927,"MEAN_ANOMALY":121.1698,"EPHEMERIS_TYPE":0,"CLASSIFICATION_TYPE":"U","NORAD_CAT_ID":53434,"ELEMENT_SET_NO":999,"REV_AT_EPOCH":349,"BSTAR":0.00053801,"MEAN_MOTION_DOT":0.00075475,"MEAN_MOTION_DDOT":0}]
